FLOCK 2K-31             
1 42869U 17042AW  17226.47891275  .00005590  00000-0  17830-3 0  9995
2 42869  96.9991 133.8173 0013745 132.1948 228.0464 15.32793384  4586
FLOCK 2K-32             
1 42870U 17042AX  17226.28292951  .00007176  00000-0  22830-3 0  9990
2 42870  96.9991 133.6327 0013690 133.2455 226.9934 15.32782323  4558
FLOCK 2K-29             
1 42871U 17042AY  17226.54388519  .00005904  00000-0  18817-3 0  9993
2 42871  96.9994 133.8804 0013753 132.0376 228.2040 15.32797045  4597
FLOCK 2K-30             
1 42872U 17042AZ  17226.54319159  .00001507  00000-0  49718-4 0  9998
2 42872  96.9999 133.8806 0013712 132.5451 227.6952 15.32803196  4588
FLOCK 2K-44             
1 42873U 17042BA  17226.60673746  .00005636  00000-0  17881-3 0  9993
2 42873  96.9993 133.9456 0014773 123.3806 236.8853 15.32946057  4604
FLOCK 2K-43             
1 42874U 17042BB  17226.60649472  .00005218  00000-0  16578-3 0  9991
2 42874  96.9992 133.9449 0014812 123.9555 236.3098 15.32939645  4608
FLOCK 2K-41             
1 42875U 17042BC  17226.21440159  .00001581  00000-0  51843-4 0  9994
2 42875  96.9998 133.5743 0014695 124.9802 235.2823 15.32921195  4541
FLOCK 2K-36             
1 42876U 17042BD  17226.60516415  .00005837  00000-0  18456-3 0  9997
2 42876  96.9994 133.9474 0014962 123.8907 236.3761 15.33037820  4608
FLOCK 2K-35             
1 42877U 17042BE  17226.53959570  .00001621  00000-0  52967-4 0  9996
2 42877  97.0000 133.8857 0014875 124.1147 236.1510 15.32983353  4594
FLOCK 2K-34             
1 42878U 17042BF  17226.53930615  .00005924  00000-0  18722-3 0  9996
2 42878  96.9989 133.8841 0015007 124.1686 236.0983 15.33049095  4598
FLOCK 2K-33             
1 42879U 17042BG  17226.60393544  .00005921  00000-0  18659-3 0  9995
2 42879  96.9990 133.9470 0015046 123.5700 236.6982 15.33137471  4606
FLOCK 2K-28             
1 42880U 17042BH  17226.27827536  .00001551  00000-0  50767-4 0  9995
2 42880  97.0000 133.6388 0014759 124.8523 235.4111 15.32992143  4553
LEMUR-2-ARTFISCHER      
1 42881U 17042BJ  17226.60362794  .00002798  00000-0  89530-4 0  9997
2 42881  97.0022 133.9543 0015627 127.1128 233.1546 15.33082499  4592
FLOCK 2K-27             
1 42882U 17042BK  17226.47289842  .00003902  00000-0  12387-3 0  9998
2 42882  96.9994 133.8258 0015080 124.0744 236.1933 15.33109372  4586
FLOCK 2K-26             
1 42883U 17042BL  17226.60246386  .00005767  00000-0  18138-3 0  9991
2 42883  96.9992 133.9498 0015204 123.5194 236.7505 15.33209033  4602
FLOCK 2K-25             
1 42884U 17042BM  17226.53732457  .00001566  00000-0  51061-4 0  9999
2 42884  96.9996 133.8866 0015087 123.7469 236.5214 15.33095577  4590
FLOCK 2K-20             
1 42885U 17042BN  17226.60185385  .00005375  00000-0  16929-3 0  9995
2 42885  96.9993 133.9511 0015287 123.5102 236.7604 15.33193296  4604
FLOCK 2K-19             
1 42886U 17042BP  17226.60169145  .00001633  00000-0  53088-4 0  9993
2 42886  97.0000 133.9517 0015195 123.3650 236.9050 15.33141636  4604
FLOCK 2K-18             
1 42887U 17042BQ  17226.46988761  .00005758  00000-0  18053-3 0  9995
2 42887  96.9992 133.8287 0015442 123.3952 236.8771 15.33309999  4580
FLOCK 2K-17             
1 42888U 17042BR  17226.53551549  .00006099  00000-0  19139-3 0  9999
2 42888  96.9989 133.8885 0015361 123.1797 237.0922 15.33256433  4592
FLOCK 2K-16             
1 42889U 17042BS  17226.53530912  .00001490  00000-0  48542-4 0  9992
2 42889  97.0001 133.8913 0015234 122.7062 237.5652 15.33194139  4590
FLOCK 2K-15             
1 42890U 17042BT  17226.53449449  .00005511  00000-0  17288-3 0  9998
2 42890  96.9996 133.8932 0015440 122.7730 237.5003 15.33311221  4598
FLOCK 2K-13             
1 42891U 17042BU  17226.53342575  .00004630  00000-0  14523-3 0  9991
2 42891  96.9992 133.8926 0015512 122.1906 238.0844 15.33389329  4590
FLOCK 2K-14             
1 42892U 17042BV  17226.59955232  .00001612  00000-0  52271-4 0  9998
2 42892  96.9996 133.9521 0015334 121.9844 238.2892 15.33246448  4608
FLOCK 2K-12             
1 42893U 17042BW  17226.27216288  .00001636  00000-0  52921-4 0  9993
2 42893  97.0001 133.6464 0015372 122.4377 237.8356 15.33300332  4557
FLOCK 2K-11             
1 42894U 17042BX  17226.59805638  .00006205  00000-0  19386-3 0  9996
2 42894  96.9994 133.9562 0015441 121.1608 239.1152 15.33389184  4606
FLOCK 2K-10             
1 42895U 17042BY  17226.53244245  .00001610  00000-0  52055-4 0  9998
2 42895  96.9995 133.8927 0015308 120.7252 239.5502 15.33338685  4595
FLOCK 2K-09             
1 42896U 17042BZ  17226.59666874  .00001671  00000-0  53836-4 0  9996
2 42896  96.9998 133.9570 0015120 119.0684 241.2076 15.33395303  4772
FLOCK 2K-06             
1 42897U 17042CA  17226.28433143  .00006194  00000-0  19770-3 0  9997
2 42897  96.9993 133.6310 0013675 132.8074 227.4321 15.32731493  4554
SILU-1 (SILKROAD 1)     
1 42903U 17021F   17226.49671691  .00008590  00000-0  11146-3 0  9998
2 42903  42.7816   8.5063 0007035 299.6736 135.3942 15.59104459  1862
